[{"OBJECT_NAME":"STARLINK-5614","OBJECT_ID":"2023-028R","EPOCH":"2026-03-09T21:10:35.389056","MEAN_MOTION":14.98330958,"ECCENTRICITY":0.00025082,"INCLINATION":69.9993,"RA_OF_ASC_NODE":243.7817,"ARG_OF_PERICENTER":270.1984,"MEAN_ANOMALY":89.8888,"EPHEMERIS_TYPE":0,"CLASSIFICATION_TYPE":"U","NORAD_CAT_ID":55756,"ELEMENT_SET_NO":999,"REV_AT_EPOCH":16607,"BSTAR":6.195287e-6,"MEAN_MOTION_DOT":-1.9e-7,"MEAN_MOTION_DDOT":0},{"OBJECT_NAME":"FENGYUN 1C DEB","OBJECT_ID":"1999-025BFC","EPOCH":"2026-03-04T03:22:29.060832","MEAN_MOTION":14.78422124,"ECCENTRICITY":0.00895674,"INCLINATION":99.5744,"RA_OF_ASC_NODE":32.5065,"ARG_OF_PERICENTER":215.442,"MEAN_ANOMALY":144.0814,"EPHEMERIS_TYPE":0,"CLASSIFICATION_TYPE":"U","NORAD_CAT_ID":31058,"ELEMENT_SET_NO":999,"REV_AT_EPOCH":695,"BSTAR":0.0014701595,"MEAN_MOTION_DOT":0.000114,"MEAN_MOTION_DDOT":0}]
